[{"OBJECT_NAME":"YAOGAN-43 01F","OBJECT_ID":"2024-148F","EPOCH":"2026-03-10T00:23:08.877408","MEAN_MOTION":15.29824616,"ECCENTRICITY":0.00057048,"INCLINATION":34.9925,"RA_OF_ASC_NODE":59.8891,"ARG_OF_PERICENTER":18.4862,"MEAN_ANOMALY":341.6062,"EPHEMERIS_TYPE":0,"CLASSIFICATION_TYPE":"U","NORAD_CAT_ID":60463,"ELEMENT_SET_NO":999,"REV_AT_EPOCH":8707,"BSTAR":0.00058388219,"MEAN_MOTION_DOT":0.00017308,"MEAN_MOTION_DDOT":0},{"OBJECT_NAME":"STARLINK-34752","OBJECT_ID":"2025-240H","EPOCH":"2026-03-09T10:13:08.148864","MEAN_MOTION":15.30200647,"ECCENTRICITY":0.00011088,"INCLINATION":53.1597,"RA_OF_ASC_NODE":64.3528,"ARG_OF_PERICENTER":102.6547,"MEAN_ANOMALY":257.4578,"EPHEMERIS_TYPE":0,"CLASSIFICATION_TYPE":"U","NORAD_CAT_ID":66153,"ELEMENT_SET_NO":999,"REV_AT_EPOCH":2194,"BSTAR":0.00055958175,"MEAN_MOTION_DOT":0.00016251,"MEAN_MOTION_DDOT":0}]
